HAIYANG-2D              
1 48621U 21043A   26155.85778596  .00000050  00000+0  11916-3 0  9990
2 48621  65.9994 335.3963 0011356 270.3534  89.6233 13.83375296254848
2021-050D               
1 48843U 21050D   26155.85446299  .00005603  00000+0  23973-3 0  9991
2 48843  97.3337 232.1718 0004381 323.0367  37.0568 15.23202418277086
TYVAK-0173              
1 48892U 21059P   26155.23288514  .00002351  00000+0  30123-3 0  9992
2 48892  96.0084 234.8097 0010982  77.2994 282.9451 14.81846914266327
MANDRAKE 2 ABLE         
1 48907U 21059AE  26155.10846157  .00023383  00000+0  35692-3 0  9992
2 48907  97.7036 343.9005 0005540  51.3785 308.7963 15.54435556275091
MANDRAKE 2 BAKER        
1 48908U 21059AF  26155.33459885  .00030186  00000+0  39037-3 0  9992
2 48908  97.7008 346.9273 0004021  52.3169 307.8450 15.58881725275291
PACE-1                  
1 48909U 21059AG  26155.09714515  .00089098  00000+0  53273-3 0  9994
2 48909  97.6780 351.7838 0000961  20.3121 339.8182 15.77603012275739
YAM-3                   
1 48915U 21059AN  26155.07773417  .00012895  00000+0  24628-3 0  9998
2 48915  97.6987 341.1796 0006113  55.9162 304.2667 15.48249286274960
FARADAY_PHOENIX         
1 48924U 21059AX  26155.33371939  .00133567  00000+0  88253-3 0  9994
2 48924  97.6829 351.9640 0002823  18.3520 341.7845 15.75182073275636
DEMO8 (TENZING)         
1 48951U 21059CA  26155.04725312  .00021529  00000+0  32823-3 0  9996
2 48951  97.7027 347.4710 0007397  43.7787 316.4051 15.54471925275264
NAPA-2                  
1 48963U 21059CN  26155.85011117  .00254544  26857-4  72296-3 0  9995
2 48963  97.6749 353.3106 0001611 262.0834  98.0257 15.93350316275842
FENGYUN 3E              
1 49008U 21062A   26155.86997876 -.00000191  00000+0 -69456-4 0  9997
2 49008  98.7489 159.4153 0002658 104.5979 255.5492 14.19902078254837
ISS (NAUKA)             
1 49044U 21066A   26155.74133726  .00008168  00000+0  15298-3 0  9998
2 49044  51.6329   1.7083 0007031 132.5880 227.5702 15.49603626569913
STARLINK-3100           
1 49144U 21082Q   26155.15558125  .00001910  00000+0  16774-3 0  9994
2 49144  70.0002  76.4351 0003051 270.7681  89.3128 14.98347641258934
CUTE                    
1 49263U 21088D   26155.23260345  .00391134  58145-4  13985-2 0  9993
2 49263  97.4162 253.3120 0006992 259.2007 100.8478 15.88777469260493
2021-091B               
1 49316U 21091B   26155.86936609  .00003440  00000+0  16968-3 0  9995
2 49316  97.4470 343.6327 0014970  83.6297 276.6642 15.18488848257114
SDGSAT 1                
1 49387U 21100A   26155.85367794  .00002984  00000+0  14211-3 0  9997
2 49387  97.2637 203.2605 0007523 349.4122  10.6954 15.19863454254043
TEIKYOSAT-4 (OORURI)    
1 49396U 21102B   26155.65820756  .00001857  00000+0  11967-3 0  9992
2 49396  97.3670 185.6288 0011415 344.5234  15.5644 15.09462831250832
Z-SAT                   
1 49399U 21102E   26155.80713624  .00003285  00000+0  16366-3 0  9992
2 49399  97.3329 191.5059 0014871 293.4135  66.5535 15.18166518251568
HIBARI                  
1 49400U 21102F   26155.65797443  .00011791  00000+0  38977-3 0  9992
2 49400  97.3241 201.7061 0010113 239.9479 120.0760 15.31468324252272
KOSEN-1                 
1 49402U 21102H   26155.68886447  .00007530  00000+0  28928-3 0  9991
2 49402  97.3189 198.0899 0012103 248.4486 111.5463 15.26654226252116
GLOBAL-14               
1 49469U 21106A   26154.94353873  .00027229  00000+0  47584-3 0  9994
2 49469  42.0049   9.7485 0017486 290.4455  69.4511 15.49914872256077
GAOFEN-3 02             
1 49495U 21109A   26155.83839053  .00000072  00000+0  34940-4 0  9994
2 49495  98.4086 164.1103 0003670  44.7718 315.3768 14.42215396238532
GLOBAL-12               
1 49772U 21115BA  26155.46151484  .00033115  00000+0  53141-3 0  9990
2 49772  53.1949 105.6936 0003461  41.6646 318.4628 15.52771705253926
GLOBAL-13               
1 49773U 21115BB  26155.18868919  .00021803  00000+0  45468-3 0  9992
2 49773  53.1967 116.3548 0004254  78.5416 281.6069 15.45513660253757
GLOBAL-17               
1 49949U 21120A   26154.38085484  .00028057  00000+0  46451-3 0  9993
2 49949  41.9940 131.5161 0012908 163.5948 196.5316 15.51500943252753
GLOBAL-16               
1 49950U 21120B   26152.37785767  .00022812  00000+0  40879-3 0  9994
2 49950  41.9931 146.8808 0010419 139.4695 220.6926 15.49391553252396
XW-3 (CAS-9)            
1 50466U 21131B   26155.83678505  .00000562  00000+0  18718-3 0  9990
2 50466  98.4978 248.2934 0005055 125.0726 235.0938 14.41345974233334
ION SCV-004             
1 50993U 22002K   26155.15767385  .00006283  00000+0  21660-3 0  9999
2 50993  97.2834 213.0616 0008462  50.5991 309.5998 15.30317567243302
ETV-A1                  
1 51060U 22002CE  26155.86733242  .00012898  00000+0  32060-3 0  9993
2 51060  97.2879 222.2102 0005848  45.5166 314.6557 15.40417815243948
BRO-5                   
1 51061U 22002CF  26155.83194140  .00030758  00000+0  61644-3 0  9994
2 51061  97.2997 229.3980 0004754  26.3751 333.7740 15.46661063244347
