OBJECT_NAME,OBJECT_ID,EPOCH,MEAN_MOTION,ECCENTRICITY,INCLINATION,RA_OF_ASC_NODE,ARG_OF_PERICENTER,MEAN_ANOMALY,EPHEMERIS_TYPE,CLASSIFICATION_TYPE,NORAD_CAT_ID,ELEMENT_SET_NO,REV_AT_EPOCH,BSTAR,MEAN_MOTION_DOT,MEAN_MOTION_DDOT
HAIYANG-2D,2021-043A,2026-06-04T20:35:12.706944,13.83375296,.0011356,65.9994,335.3963,270.3534,89.6233,0,U,48621,999,25484,.11916E-3,.5E-6,0
2021-050D,2021-050D,2026-06-04T20:30:25.602336,15.23202418,.0004381,97.3337,232.1718,323.0367,37.0568,0,U,48843,999,27708,.23973E-3,.5603E-4,0
TYVAK-0173,2021-059P,2026-06-04T05:35:21.276096,14.81846914,.0010982,96.0084,234.8097,77.2994,282.9451,0,U,48892,999,26632,.30123E-3,.2351E-4,0
MANDRAKE 2 ABLE,2021-059AE,2026-06-04T02:36:11.079648,15.54435556,.000554,97.7036,343.9005,51.3785,308.7963,0,U,48907,999,27509,.35692E-3,.23383E-3,0
MANDRAKE 2 BAKER,2021-059AF,2026-06-04T08:01:49.340640,15.58881725,.0004021,97.7008,346.9273,52.3169,307.8450,0,U,48908,999,27529,.39037E-3,.30186E-3,0
PACE-1,2021-059AG,2026-06-04T02:19:53.340960,15.77603012,.0000961,97.6780,351.7838,20.3121,339.8182,0,U,48909,999,27573,.53273E-3,.89098E-3,0
YAM-3,2021-059AN,2026-06-04T01:51:56.232288,15.48249286,.0006113,97.6987,341.1796,55.9162,304.2667,0,U,48915,999,27496,.24628E-3,.12895E-3,0
FARADAY_PHOENIX,2021-059AX,2026-06-04T08:00:33.355296,15.75182073,.0002823,97.6829,351.9640,18.3520,341.7845,0,U,48924,999,27563,.88253E-3,.133567E-2,0
DEMO8 (TENZING),2021-059CA,2026-06-04T01:08:02.669568,15.54471925,.00073974,97.7027,347.4710,43.7787,316.4051,0,U,48951,999,27526,.32822528E-3,.21529E-3,0
NAPA-2,2021-059CN,2026-06-04T20:24:09.605088,15.93350316,.0001611,97.6749,353.3106,262.0834,98.0257,0,U,48963,999,27584,.72296E-3,.254544E-2,.26857E-4
FENGYUN 3E,2021-062A,2026-06-04T20:52:46.164864,14.19902078,.0002658,98.7489,159.4153,104.5979,255.5492,0,U,49008,999,25483,-.69456E-4,-.191E-5,0
ISS (NAUKA),2021-066A,2026-06-04T17:47:31.539264,15.49603626,.0007031,51.6329,1.7083,132.5880,227.5702,0,U,49044,999,56991,.15298E-3,.8168E-4,0
STARLINK-3100,2021-082Q,2026-06-04T03:44:02.220000,14.98347641,.0003051,70.0002,76.4351,270.7681,89.3128,0,U,49144,999,25893,.16774E-3,.191E-4,0
CUTE,2021-088D,2026-06-04T05:34:56.938080,15.88777469,.0006992,97.4162,253.3120,259.2007,100.8478,0,U,49263,999,26049,.13985E-2,.391134E-2,.58145E-4
2021-091B,2021-091B,2026-06-04T20:51:53.230176,15.18488848,.001497,97.4470,343.6327,83.6297,276.6642,0,U,49316,999,25711,.16968E-3,.344E-4,0
SDGSAT 1,2021-100A,2026-06-04T20:29:17.774016,15.19863454,.0007523,97.2637,203.2605,349.4122,10.6954,0,U,49387,999,25404,.14211E-3,.2984E-4,0
TEIKYOSAT-4 (OORURI),2021-102B,2026-06-04T15:47:49.133184,15.09462831,.0011415,97.3670,185.6288,344.5234,15.5644,0,U,49396,999,25083,.11967E-3,.1857E-4,0
Z-SAT,2021-102E,2026-06-04T19:22:16.571136,15.18166518,.0014871,97.3329,191.5059,293.4135,66.5535,0,U,49399,999,25156,.16366E-3,.3285E-4,0
HIBARI,2021-102F,2026-06-04T15:47:28.990752,15.31468324,.0010113,97.3241,201.7061,239.9479,120.0760,0,U,49400,999,25227,.38977E-3,.11791E-3,0
KOSEN-1,2021-102H,2026-06-04T16:31:57.890208,15.26654226,.0012103,97.3189,198.0899,248.4486,111.5463,0,U,49402,999,25211,.28928E-3,.753E-4,0
GLOBAL-14,2021-106A,2026-06-03T22:38:41.746272,15.49914872,.0017486,42.0049,9.7485,290.4455,69.4511,0,U,49469,999,25607,.47583912E-3,.27229E-3,0
GAOFEN-3 02,2021-109A,2026-06-04T20:07:16.941792,14.42215396,.000367,98.4086,164.1103,44.7718,315.3768,0,U,49495,999,23853,.3494E-4,.72E-6,0
GLOBAL-12,2021-115BA,2026-06-04T11:04:34.882176,15.52771705,.0003461,53.1949,105.6936,41.6646,318.4628,0,U,49772,999,25392,.53141E-3,.33115E-3,0
GLOBAL-13,2021-115BB,2026-06-04T04:31:42.746016,15.45513660,.0004254,53.1967,116.3548,78.5416,281.6069,0,U,49773,999,25375,.45468E-3,.21803E-3,0
GLOBAL-17,2021-120A,2026-06-03T09:08:25.858176,15.51500943,.00129084,41.9940,131.5161,163.5948,196.5316,0,U,49949,999,25275,.46450586E-3,.28057E-3,0
GLOBAL-16,2021-120B,2026-06-01T09:04:06.902688,15.49391553,.00104196,41.9931,146.8808,139.4695,220.6926,0,U,49950,999,25239,.40879456E-3,.22812E-3,0
XW-3 (CAS-9),2021-131B,2026-06-04T20:04:58.228320,14.41345974,.0005055,98.4978,248.2934,125.0726,235.0938,0,U,50466,999,23333,.18718E-3,.562E-5,0
ION SCV-004,2022-002K,2026-06-04T03:47:03.020640,15.30317567,.0008462,97.2834,213.0616,50.5991,309.5998,0,U,50993,999,24330,.2166E-3,.6283E-4,0
ETV-A1,2022-002CE,2026-06-04T20:48:57.521088,15.40417815,.0005848,97.2879,222.2102,45.5166,314.6557,0,U,51060,999,24394,.3206E-3,.12898E-3,0
BRO-5,2022-002CF,2026-06-04T19:57:59.736960,15.46661063,.0004754,97.2997,229.3980,26.3751,333.7740,0,U,51061,999,24434,.61644E-3,.30758E-3,0
